{
    "links": {
        "self": "http://www.neowsapp.com/rest/v1/neo/3835813?api_key=iIulBulltgU6a56xZRHN4H3l9WmuAYTsLGpBGhQ2"
    },
    "id": "3835813",
    "neo_reference_id": "3835813",
    "name": "(2018 UK2)",
    "designation": "2018 UK2",
    "nasa_jpl_url": "http://ssd.jpl.nasa.gov/sbdb.cgi?sstr=3835813",
    "absolute_magnitude_h": 23.1,
    "estimated_diameter": {
        "kilometers": {
            "estimated_diameter_min": 0.063760979,
            "estimated_diameter_max": 0.1425738833
        },
        "meters": {
            "estimated_diameter_min": 63.7609789875,
            "estimated_diameter_max": 142.5738833281
        },
        "miles": {
            "estimated_diameter_min": 0.0396192233,
            "estimated_diameter_max": 0.0885912765
        },
        "feet": {
            "estimated_diameter_min": 209.1895703015,
            "estimated_diameter_max": 467.7620993781
        }
    },
    "is_potentially_hazardous_asteroid": false,
    "close_approach_data": [
        {
            "close_approach_date": "2018-10-27",
            "close_approach_date_full": "2018-Oct-27 15:12",
            "epoch_date_close_approach": 1540653120000,
            "relative_velocity": {
                "kilometers_per_second": "26.3668252618",
                "kilometers_per_hour": "94920.5709426265",
                "miles_per_hour": "58979.9514282115"
            },
            "miss_distance": {
                "astronomical": "0.0643798698",
                "lunar": "25.0437693522",
                "kilometers": "9631091.392957326",
                "miles": "5984482.6874340588"
            },
            "orbiting_body": "Earth"
        }
    ],
    "orbital_data": {
        "orbit_id": "5",
        "orbit_determination_date": "2018-11-02 06:40:52",
        "first_observation_date": "2018-10-27",
        "last_observation_date": "2018-11-02",
        "data_arc_in_days": 6,
        "observations_used": 64,
        "orbit_uncertainty": "8",
        "minimum_orbit_intersection": ".0592623",
        "jupiter_tisserand_invariant": "4.178",
        "epoch_osculation": "2458419.5",
        "eccentricity": ".2896751399210369",
        "semi_major_axis": "1.481995507548919",
        "inclination": "49.26630105927849",
        "ascending_node_longitude": "33.06401172505806",
        "orbital_period": "658.9747250845679",
        "perihelion_distance": "1.052698251537338",
        "perihelion_argument": "3.945863897424402",
        "aphelion_distance": "1.911292763560501",
        "perihelion_time": "2458423.577477293319",
        "mean_anomaly": "357.7724611131232",
        "mean_motion": ".5463031984326869",
        "equinox": "J2000",
        "orbit_class": {
            "orbit_class_type": "AMO",
            "orbit_class_description": "Near-Earth asteroid orbits similar to that of 1221 Amor",
            "orbit_class_range": "1.017 AU < q (perihelion) < 1.3 AU"
        }
    },
    "is_sentry_object": false
}